{"type": "FeatureCollection", "features": [ {"type": "Feature", "properties": {"norad_id": 66591, "name": "STARLINK-36058", "group": "last-30-days", "lat": -41.830495669017246, "lon": 104.67528854201574, "alt_km": 415.69795837092624, "timestamp": "2025-12-15T04:01:19.179929+00:00", "meta": {"OBJECT_NAME": "STARLINK-36058", "OBJECT_ID": "2025-270D", "EPOCH": "2025-12-14T00:00:04.000320", "MEAN_MOTION": 15.50496812, "ECCENTRICITY": 0.00029893, "INCLINATION": 42.9998, "RA_OF_ASC_NODE": 185.3554, "ARG_OF_PERICENTER": 275.6502, "MEAN_ANOMALY": 320.9227, "EPHEMERIS_TYPE": 0, "CLASSIFICATION_TYPE": "U", "NORAD_CAT_ID": 66591, "ELEMENT_SET_NO": 999, "REV_AT_EPOCH": 460, "BSTAR": 0.0022716383, "MEAN_MOTION_DOT": 0.00134859, "MEAN_MOTION_DDOT": 0}, "tle": {"line1": "1 66591U 25270D   25348.00004630  .00134859  00000+0  22716-2 0  9997", "line2": "2 66591  42.9998 185.3554 0002989 275.6502 320.9227 15.50496812  4602"}}, "geometry": {"type": "Point", "coordinates": [104.67528854201574, -41.830495669017246]}}, {"type": "Feature", "properties": {"norad_id": 66592, "name": "STARLINK-36066", "group": "last-30-days", "lat": -26.6900689210638, "lon": 31.3198339672896, "alt_km": 453.9670179460345, "timestamp": "2025-12-15T04:01:19.179939+00:00", "meta": {"OBJECT_NAME": "STARLINK-36066", "OBJECT_ID": "2025-270E", "EPOCH": "2025-12-14T06:00:02.999808", "MEAN_MOTION": 15.42348918, "ECCENTRICITY": 0.00015638, "INCLINATION": 43.0001, "RA_OF_ASC_NODE": 183.9535, "ARG_OF_PERICENTER": 277.7284, "MEAN_ANOMALY": 250.2581, "EPHEMERIS_TYPE": 0, "CLASSIFICATION_TYPE": "U", "NORAD_CAT_ID": 66592, "ELEMENT_SET_NO": 999, "REV_AT_EPOCH": 454, "BSTAR": -0.059047447, "MEAN_MOTION_DOT": -0.02325494, "MEAN_MOTION_DDOT": 0}, "tle": {"line1": "1 66592U 25270E   25348.25003472 -.02325494  00000+0 -59047-1 0  9995", "line2": "2 66592  43.0001 183.9535 0001563 277.7284 250.2581 15.42348918  4545"}}, "geometry": {"type": "Point", "coordinates": [31.3198339672896, -26.6900689210638]}}, {"type": "Feature", "properties": {"norad_id": 66593, "name": "STARLINK-36031", "group": "last-30-days", "lat": -40.98661323586334, "lon": 109.69506724665027, "alt_km": 416.659931955669, "timestamp": "2025-12-15T04:01:19.179955+00:00", "meta": {"OBJECT_NAME": "STARLINK-36031", "OBJECT_ID": "2025-270F", "EPOCH": "2025-12-14T00:30:54.250272", "MEAN_MOTION": 15.50572787, "ECCENTRICITY": 0.00017208, "INCLINATION": 42.9997, "RA_OF_ASC_NODE": 185.2188, "ARG_OF_PERICENTER": 265.4013, "MEAN_ANOMALY": 94.665, "EPHEMERIS_TYPE": 0, "CLASSIFICATION_TYPE": "U", "NORAD_CAT_ID": 66593, "ELEMENT_SET_NO": 999, "REV_AT_EPOCH": 454, "BSTAR": 0.0014075535, "MEAN_MOTION_DOT": 0.00083096, "MEAN_MOTION_DDOT": 0}, "tle": {"line1": "1 66593U 25270F   25348.02146123  .00083096  00000+0  14076-2 0  9991", "line2": "2 66593  42.9997 185.2188 0001720 265.4013  94.6650 15.50572787  4545"}}, "geometry": {"type": "Point", "coordinates": [109.69506724665027, -40.98661323586334]}}, {"type": "Feature", "properties": {"norad_id": 66594, "name": "STARLINK-36032", "group": "last-30-days", "lat": -40.50738376641271, "lon": 112.04817647322199, "alt_km": 416.6202091570576, "timestamp": "2025-12-15T04:01:19.179965+00:00", "meta": {"OBJECT_NAME": "STARLINK-36032", "OBJECT_ID": "2025-270G", "EPOCH": "2025-12-14T00:00:04.000320", "MEAN_MOTION": 15.5050269, "ECCENTRICITY": 0.00016318, "INCLINATION": 42.9998, "RA_OF_ASC_NODE": 185.341, "ARG_OF_PERICENTER": 276.5265, "MEAN_ANOMALY": 325.8, "EPHEMERIS_TYPE": 0, "CLASSIFICATION_TYPE": "U", "NORAD_CAT_ID": 66594, "ELEMENT_SET_NO": 999, "REV_AT_EPOCH": 434, "BSTAR": 0.0020735286, "MEAN_MOTION_DOT": 0.00122896, "MEAN_MOTION_DDOT": 0}, "tle": {"line1": "1 66594U 25270G   25348.00004630  .00122896  00000+0  20735-2 0  9997", "line2": "2 66594  42.9998 185.3410 0001631 276.5265 325.8000 15.50502690  4341"}}, "geometry": {"type": "Point", "coordinates": [112.04817647322199, -40.50738376641271]}}, {"type": "Feature", "properties": {"norad_id": 66595, "name": "STARLINK-35711", "group": "last-30-days", "lat": -39.98919248495351, "lon": 114.3263598878975, "alt_km": 416.9249531120013, "timestamp": "2025-12-15T04:01:19.179977+00:00", "meta": {"OBJECT_NAME": "STARLINK-35711", "OBJECT_ID": "2025-270H", "EPOCH": "2025-12-14T00:29:54.926304", "MEAN_MOTION": 15.5056412, "ECCENTRICITY": 0.00016069, "INCLINATION": 42.9995, "RA_OF_ASC_NODE": 185.2128, "ARG_OF_PERICENTER": 263.7365, "MEAN_ANOMALY": 96.3312, "EPHEMERIS_TYPE": 0, "CLASSIFICATION_TYPE": "U", "NORAD_CAT_ID": 66595, "ELEMENT_SET_NO": 999, "REV_AT_EPOCH": 465, "BSTAR": 0.00093576363, "MEAN_MOTION_DOT": 0.00054912, "MEAN_MOTION_DDOT": 0}, "tle": {"line1": "1 66595U 25270H   25348.02077461  .00054912  00000+0  93576-3 0  9999", "line2": "2 66595  42.9995 185.2128 0001606 263.7365  96.3312 15.50564120  4651"}}, "geometry": {"type": "Point", "coordinates": [114.3263598878975, -39.98919248495351]}}, {"type": "Feature", "properties": {"norad_id": 66596, "name": "STARLINK-35811", "group": "last-30-days", "lat": -12.985517451126501, "lon": 13.04897267599544, "alt_km": 444.89915387262045, "timestamp": "2025-12-15T04:01:19.179988+00:00", "meta": {"OBJECT_NAME": "STARLINK-35811", "OBJECT_ID": "2025-270J", "EPOCH": "2025-12-14T06:00:02.999808", "MEAN_MOTION": 15.40691532, "ECCENTRICITY": 0.00021454, "INCLINATION": 42.9998, "RA_OF_ASC_NODE": 184.01, "ARG_OF_PERICENTER": 266.799, "MEAN_ANOMALY": 237.1388, "EPHEMERIS_TYPE": 0, "CLASSIFICATION_TYPE": "U", "NORAD_CAT_ID": 66596, "ELEMENT_SET_NO": 999, "REV_AT_EPOCH": 475, "BSTAR": 0.00021733345, "MEAN_MOTION_DOT": 8.783e-05, "MEAN_MOTION_DDOT": 0}, "tle": {"line1": "1 66596U 25270J   25348.25003472  .00008783  00000+0  21733-3 0  9997", "line2": "2 66596  42.9998 184.0100 0002145 266.7990 237.1388 15.40691532  4754"}}, "geometry": {"type": "Point", "coordinates": [13.04897267599544, -12.985517451126501]}}, {"type": "Feature", "properties": {"norad_id": 66597, "name": "STARLINK-35820", "group": "last-30-days", "lat": -39.50493524650175, "lon": 60.82858819434111, "alt_km": 447.59520135183266, "timestamp": "2025-12-15T04:01:19.179998+00:00", "meta": {"OBJECT_NAME": "STARLINK-35820", "OBJECT_ID": "2025-270K", "EPOCH": "2025-12-14T06:00:02.999808", "MEAN_MOTION": 15.44227723, "ECCENTRICITY": 0.00012601, "INCLINATION": 42.9997, "RA_OF_ASC_NODE": 183.9032, "ARG_OF_PERICENTER": 273.5732, "MEAN_ANOMALY": 275.274, "EPHEMERIS_TYPE": 0, "CLASSIFICATION_TYPE": "U", "NORAD_CAT_ID": 66597, "ELEMENT_SET_NO": 999, "REV_AT_EPOCH": 475, "BSTAR": -0.050420793, "MEAN_MOTION_DOT": -0.02100991, "MEAN_MOTION_DDOT": 0}, "tle": {"line1": "1 66597U 25270K   25348.25003472 -.02100991  00000+0 -50421-1 0  9990", "line2": "2 66597  42.9997 183.9032 0001260 273.5732 275.2740 15.44227723  4759"}}, "geometry": {"type": "Point", "coordinates": [60.82858819434111, -39.50493524650175]}}, {"type": "Feature", "properties": {"norad_id": 66598, "name": "STARLINK-35981", "group": "last-30-days", "lat": -38.02462620170408, "lon": 121.43368873761392, "alt_km": 416.6240626648523, "timestamp": "2025-12-15T04:01:19.180011+00:00", "meta": {"OBJECT_NAME": "STARLINK-35981", "OBJECT_ID": "2025-270L", "EPOCH": "2025-12-14T06:39:27.876672", "MEAN_MOTION": 15.50601029, "ECCENTRICITY": 0.00017401, "INCLINATION": 42.9992, "RA_OF_ASC_NODE": 183.6976, "ARG_OF_PERICENTER": 260.576, "MEAN_ANOMALY": 99.4903, "EPHEMERIS_TYPE": 0, "CLASSIFICATION_TYPE": "U", "NORAD_CAT_ID": 66598, "ELEMENT_SET_NO": 999, "REV_AT_EPOCH": 442, "BSTAR": 0.0015430836, "MEAN_MOTION_DOT": 0.00091319, "MEAN_MOTION_DDOT": 0}, "tle": {"line1": "1 66598U 25270L   25348.27740598  .00091319  00000+0  15431-2 0  9992", "line2": "2 66598  42.9992 183.6976 0001740 260.5760  99.4903 15.50601029  4422"}}, "geometry": {"type": "Point", "coordinates": [121.43368873761392, -38.02462620170408]}}, {"type": "Feature", "properties": {"norad_id": 66599, "name": "STARLINK-35930", "group": "last-30-days", "lat": -37.29968810305746, "lon": 123.64662762256641, "alt_km": 417.270727740236, "timestamp": "2025-12-15T04:01:19.180022+00:00", "meta": {"OBJECT_NAME": "STARLINK-35930", "OBJECT_ID": "2025-270M", "EPOCH": "2025-12-14T06:38:58.381440", "MEAN_MOTION": 15.50601172, "ECCENTRICITY": 6.541e-05, "INCLINATION": 42.9992, "RA_OF_ASC_NODE": 183.6953, "ARG_OF_PERICENTER": 259.7194, "MEAN_ANOMALY": 100.3592, "EPHEMERIS_TYPE": 0, "CLASSIFICATION_TYPE": "U", "NORAD_CAT_ID": 66599, "ELEMENT_SET_NO": 999, "REV_AT_EPOCH": 458, "BSTAR": 0.0014620785, "MEAN_MOTION_DOT": 0.00086452, "MEAN_MOTION_DDOT": 0}, "tle": {"line1": "1 66599U 25270M   25348.27706460  .00086452  00000+0  14621-2 0  9995", "line2": "2 66599  42.9992 183.6953 0000654 259.7194 100.3592 15.50601172  4584"}}, "geometry": {"type": "Point", "coordinates": [123.64662762256641, -37.29968810305746]}}, {"type": "Feature", "properties": {"norad_id": 66600, "name": "STARLINK-35980", "group": "last-30-days", "lat": -36.43904699559252, "lon": 126.07788375456586, "alt_km": 415.45446131695735, "timestamp": "2025-12-15T04:01:19.180034+00:00", "meta": {"OBJECT_NAME": "STARLINK-35980", "OBJECT_ID": "2025-270N", "EPOCH": "2025-12-14T00:00:04.000320", "MEAN_MOTION": 15.50494294, "ECCENTRICITY": 0.00027052, "INCLINATION": 43, "RA_OF_ASC_NODE": 185.3122, "ARG_OF_PERICENTER": 274.3886, "MEAN_ANOMALY": 339.4365, "EPHEMERIS_TYPE": 0, "CLASSIFICATION_TYPE": "U", "NORAD_CAT_ID": 66600, "ELEMENT_SET_NO": 999, "REV_AT_EPOCH": 450, "BSTAR": 0.0029848595, "MEAN_MOTION_DOT": 0.00178281, "MEAN_MOTION_DDOT": 0}, "tle": {"line1": "1 66600U 25270N   25348.00004630  .00178281  00000+0  29849-2 0  9999", "line2": "2 66600  43.0000 185.3122 0002705 274.3886 339.4365 15.50494294  4506"}}, "geometry": {"type": "Point", "coordinates": [126.07788375456586, -36.43904699559252]}}]}